{
  "norad_id": 59490,
  "name": "STARLINK-31670",
  "history": [
    {
      "epoch": "2026-03-28T17:09:53.029440Z",
      "apogee_km": 484.06845470721237,
      "perigee_km": 482.0242337416339,
      "latitude_deg": 8.517206887567724e-06,
      "longitude_deg": 160.10788680039795,
      "height_km": 482.8128540025104,
      "semi_major_axis_km": 6861.183344224423,
      "eccentricity": 0.00014897,
      "inclination_deg": 42.9988,
      "raan_deg": 243.7105,
      "arg_perigee_deg": 270.568,
      "mean_anomaly_deg": 89.5001,
      "mean_motion_rev_day": 15.27580919
    },
    {
      "epoch": "2026-03-29T02:34:49.416096Z",
      "apogee_km": 484.30995600514507,
      "perigee_km": 481.79464400776305,
      "latitude_deg": 2.9525225285080307e-05,
      "longitude_deg": 16.27007721161867,
      "height_km": 482.85336618352295,
      "semi_major_axis_km": 6861.189300006454,
      "eccentricity": 0.0001833,
      "inclination_deg": 42.9986,
      "raan_deg": 241.4943,
      "arg_perigee_deg": 268.8983,
      "mean_anomaly_deg": 91.1659,
      "mean_motion_rev_day": 15.2757893
    },
    {
      "epoch": "2026-03-30T09:57:57.550752Z",
      "apogee_km": 483.95797084967853,
      "perigee_km": 482.1511446648583,
      "latitude_deg": 1.921159800454144e-05,
      "longitude_deg": -103.18788775627347,
      "height_km": 482.62274127459705,
      "semi_major_axis_km": 6861.191557757268,
      "eccentricity": 0.00013167,
      "inclination_deg": 42.9989,
      "raan_deg": 234.1092,
      "arg_perigee_deg": 283.3322,
      "mean_anomaly_deg": 76.7383,
      "mean_motion_rev_day": 15.27578176
    },
    {
      "epoch": "2026-03-30T16:14:34.997280Z",
      "apogee_km": 484.24992583603307,
      "perigee_km": 481.84974545718705,
      "latitude_deg": 5.407765617840694e-05,
      "longitude_deg": 160.9220324807146,
      "height_km": 482.8380205692213,
      "semi_major_axis_km": 6861.18683564661,
      "eccentricity": 0.00017491,
      "inclination_deg": 43.0024,
      "raan_deg": 232.6329,
      "arg_perigee_deg": 269.4776,
      "mean_anomaly_deg": 90.5876,
      "mean_motion_rev_day": 15.27579753
    },
    {
      "epoch": "2026-03-31T15:46:56.247744Z",
      "apogee_km": 485.4692210564017,
      "perigee_km": 480.6622624155416,
      "latitude_deg": -6.000465985430749e-05,
      "longitude_deg": 161.32874645293498,
      "height_km": 482.442398266546,
      "semi_major_axis_km": 6861.202741735971,
      "eccentricity": 0.0003503,
      "inclination_deg": 43.0064,
      "raan_deg": 227.095,
      "arg_perigee_deg": 279.634,
      "mean_anomaly_deg": 80.4115,
      "mean_motion_rev_day": 15.27574441
    }
  ]
}